start=new Date('2022-04-20T00:00:00.000Z').valueOf();
sats=[{"LAUNCH_DATE":"2021-12-02","MEAN_MOTION_DDOT":"0.0000000000000","MEAN_MOTION_DOT":"-0.00011713","PERIOD":"95.437","MEAN_ELEMENT_THEORY":"SGP4","NORAD_CAT_ID":"49733","TLE_LINE2":"2 49733  53.2156  52.7390 0002216  43.6355 271.3408 15.08855082 22161","ELEMENT_SET_NO":"999","ECCENTRICITY":"0.00022160","FILE":"3408636","EPHEMERIS_TYPE":"0","SITE":"AFETR","RCS_SIZE":"LARGE","INCLINATION":"53.2156","GP_ID":"201637569","REV_AT_EPOCH":"2216","TLE_LINE1":"1 49733U 21115K   22109.91667824 -.00011713  00000-0 -71871-3 0  9995","RA_OF_ASC_NODE":"52.7390","OBJECT_TYPE":"PAYLOAD","OBJECT_NAME":"STARLINK-3252","REF_FRAME":"TEME","ARG_OF_PERICENTER":"43.6355","EPOCH":"2022-04-19T22:00:00.999936","BSTAR":"-0.00071871000000","CENTER_NAME":"EARTH","OBJECT_ID":"2021-115K","APOAPSIS":"541.232","TIME_SYSTEM":"UTC","DECAY_DATE":null,"SEMIMAJOR_AXIS":"6917.834","COUNTRY_CODE":"US","CLASSIFICATION_TYPE":"U","PERIAPSIS":"538.166","MEAN_MOTION":"15.08855082","MEAN_ANOMALY":"271.3408"},{"RA_OF_ASC_NODE":"44.2148","TLE_LINE1":"1 49734U 21115L   22109.58334491 -.00017293  00000-0 -10705-2 0  9997","OBJECT_TYPE":"PAYLOAD","OBJECT_NAME":"STARLINK-3238","REF_FRAME":"TEME","ARG_OF_PERICENTER":"45.4032","EPOCH":"2022-04-19T14:00:01.000224","BSTAR":"-0.00107050000000","CENTER_NAME":"EARTH","OBJECT_ID":"2021-115L","APOAPSIS":"541.093","TIME_SYSTEM":"UTC","DECAY_DATE":null,"SEMIMAJOR_AXIS":"6917.828","COUNTRY_CODE":"US","CLASSIFICATION_TYPE":"U","PERIAPSIS":"538.294","MEAN_MOTION":"15.08857011","MEAN_ANOMALY":"152.9750","LAUNCH_DATE":"2021-12-02","MEAN_MOTION_DDOT":"0.0000000000000","MEAN_MOTION_DOT":"-0.00017293","PERIOD":"95.436","MEAN_ELEMENT_THEORY":"SGP4","TLE_LINE2":"2 49734  53.2190  44.2148 0002023  45.4032 152.9750 15.08857011  3566","ELEMENT_SET_NO":"999","NORAD_CAT_ID":"49734","ECCENTRICITY":"0.00020230","FILE":"3408368","SITE":"AFETR","EPHEMERIS_TYPE":"0","RCS_SIZE":"LARGE","INCLINATION":"53.2190","GP_ID":"201629599","REV_AT_EPOCH":"356"},{"REV_AT_EPOCH":"2216","GP_ID":"201640371","INCLINATION":"53.2158","SITE":"AFETR","FILE":"3408764","EPHEMERIS_TYPE":"0","RCS_SIZE":"LARGE","TLE_LINE2":"2 49735  53.2158  52.7328 0002067  38.2493 256.7661 15.08855165 22163","ELEMENT_SET_NO":"999","NORAD_CAT_ID":"49735","ECCENTRICITY":"0.00020670","PERIOD":"95.437","MEAN_ELEMENT_THEORY":"SGP4","MEAN_MOTION_DOT":"-0.00039521","LAUNCH_DATE":"2021-12-02","MEAN_MOTION_DDOT":"0.0000000000000","MEAN_MOTION":"15.08855165","MEAN_ANOMALY":"256.7661","PERIAPSIS":"538.269","CLASSIFICATION_TYPE":"U","DECAY_DATE":null,"SEMIMAJOR_AXIS":"6917.834","COUNTRY_CODE":"US","CENTER_NAME":"EARTH","OBJECT_ID":"2021-115M","APOAPSIS":"541.129","TIME_SYSTEM":"UTC","EPOCH":"2022-04-19T22:00:00.999936","BSTAR":"-0.00247760000000","ARG_OF_PERICENTER":"38.2493","TLE_LINE1":"1 49735U 21115M   22109.91667824 -.00039521  00000-0 -24776-2 0  9995","OBJECT_TYPE":"PAYLOAD","RA_OF_ASC_NODE":"52.7328","OBJECT_NAME":"STARLINK-3113","REF_FRAME":"TEME"},{"MEAN_MOTION_DOT":"-0.00045853","MEAN_ELEMENT_THEORY":"SGP4","PERIOD":"95.436","LAUNCH_DATE":"2021-12-02","MEAN_MOTION_DDOT":"0.0000000000000","GP_ID":"201640440","INCLINATION":"53.2191","REV_AT_EPOCH":"2231","ECCENTRICITY":"0.00023290","TLE_LINE2":"2 49736  53.2191  42.7182 0002329  35.8698 134.1126 15.08869362 22315","ELEMENT_SET_NO":"999","NORAD_CAT_ID":"49736","RCS_SIZE":"LARGE","SITE":"AFETR","FILE":"3408771","EPHEMERIS_TYPE":"0","EPOCH":"2022-04-19T22:00:00.999936","BSTAR":"-0.00287890000000","TIME_SYSTEM":"UTC","APOAPSIS":"541.267","CENTER_NAME":"EARTH","OBJECT_ID":"2021-115N","REF_FRAME":"TEME","OBJECT_TYPE":"PAYLOAD","TLE_LINE1":"1 49736U 21115N   22109.91667824 -.00045853  00000-0 -28789-2 0  9999","RA_OF_ASC_NODE":"42.7182","OBJECT_NAME":"STARLINK-3148","ARG_OF_PERICENTER":"35.8698","PERIAPSIS":"538.044","MEAN_ANOMALY":"134.1126","MEAN_MOTION":"15.08869362","SEMIMAJOR_AXIS":"6917.791","COUNTRY_CODE":"US","DECAY_DATE":null,"CLASSIFICATION_TYPE":"U"},{"MEAN_MOTION_DDOT":"0.0000000000000","LAUNCH_DATE":"2021-12-02","MEAN_ELEMENT_THEORY":"SGP4","PERIOD":"95.437","MEAN_MOTION_DOT":"-0.00002124","RCS_SIZE":"LARGE","FILE":"3408368","EPHEMERIS_TYPE":"0","SITE":"AFETR","ECCENTRICITY":"0.00021260","ELEMENT_SET_NO":"999","TLE_LINE2":"2 49737  53.2204  44.2215 0002126  38.6169 139.7560 15.08855251  3565","NORAD_CAT_ID":"49737","REV_AT_EPOCH":"356","GP_ID":"201629349","INCLINATION":"53.2204","ARG_OF_PERICENTER":"38.6169","REF_FRAME":"TEME","OBJECT_NAME":"STARLINK-3225","TLE_LINE1":"1 49737U 21115P   22109.58334491 -.00002124  00000-0 -11534-3 0  9999","OBJECT_TYPE":"PAYLOAD","RA_OF_ASC_NODE":"44.2215","APOAPSIS":"541.170","TIME_SYSTEM":"UTC","OBJECT_ID":"2021-115P","CENTER_NAME":"EARTH","BSTAR":"-0.00011534000000","EPOCH":"2022-04-19T14:00:01.000224","CLASSIFICATION_TYPE":"U","COUNTRY_CODE":"US","SEMIMAJOR_AXIS":"6917.834","DECAY_DATE":null,"MEAN_ANOMALY":"139.7560","MEAN_MOTION":"15.08855251","PERIAPSIS":"538.228"},{"FILE":"3408726","EPHEMERIS_TYPE":"0","SITE":"AFETR","RCS_SIZE":"LARGE","NORAD_CAT_ID":"49738","TLE_LINE2":"2 49738  53.2197  42.7283 0002194  38.3996 111.5749 15.08868592 22307","ELEMENT_SET_NO":"999","ECCENTRICITY":"0.00021940","REV_AT_EPOCH":"2230","GP_ID":"201639827","INCLINATION":"53.2197","MEAN_MOTION_DDOT":"0.0000000000000","LAUNCH_DATE":"2021-12-02","PERIOD":"95.436","MEAN_ELEMENT_THEORY":"SGP4","MEAN_MOTION_DOT":"-0.00052172","CLASSIFICATION_TYPE":"U","DECAY_DATE":null,"COUNTRY_CODE":"US","SEMIMAJOR_AXIS":"6917.793","MEAN_MOTION":"15.08868592","MEAN_ANOMALY":"111.5749","PERIAPSIS":"538.140","ARG_OF_PERICENTER":"38.3996","OBJECT_NAME":"STARLINK-3143","OBJECT_TYPE":"PAYLOAD","TLE_LINE1":"1 49738U 21115Q   22109.91667824 -.00052172  00000-0 -32811-2 0  9994","RA_OF_ASC_NODE":"42.7283","REF_FRAME":"TEME","OBJECT_ID":"2021-115Q","CENTER_NAME":"EARTH","APOAPSIS":"541.176","TIME_SYSTEM":"UTC","BSTAR":"-0.00328110000000","EPOCH":"2022-04-19T22:00:00.999936"},{"APOAPSIS":"541.143","TIME_SYSTEM":"UTC","CENTER_NAME":"EARTH","OBJECT_ID":"2021-115R","EPOCH":"2022-04-19T14:00:01.000224","BSTAR":"-0.00028864000000","ARG_OF_PERICENTER":"31.2190","REF_FRAME":"TEME","TLE_LINE1":"1 49739U 21115R   22109.58334491 -.00004880  00000-0 -28864-3 0  9996","OBJECT_TYPE":"PAYLOAD","RA_OF_ASC_NODE":"54.2367","OBJECT_NAME":"STARLINK-3155","MEAN_ANOMALY":"212.1865","MEAN_MOTION":"15.08844095","PERIAPSIS":"538.322","CLASSIFICATION_TYPE":"U","SEMIMAJOR_AXIS":"6917.868","COUNTRY_CODE":"US","DECAY_DATE":null,"MEAN_ELEMENT_THEORY":"SGP4","PERIOD":"95.437","MEAN_MOTION_DOT":"-0.00004880","LAUNCH_DATE":"2021-12-02","MEAN_MOTION_DDOT":"0.0000000000000","REV_AT_EPOCH":"356","GP_ID":"201628848","INCLINATION":"53.2130","RCS_SIZE":"LARGE","FILE":"3408368","EPHEMERIS_TYPE":"0","SITE":"AFETR","ECCENTRICITY":"0.00020390","NORAD_CAT_ID":"49739","TLE_LINE2":"2 49739  53.2130  54.2367 0002039  31.2190 212.1865 15.08844095  3568","ELEMENT_SET_NO":"999"},{"REV_AT_EPOCH":"357","GP_ID":"201629098","INCLINATION":"53.2170","SITE":"AFETR","FILE":"3408368","EPHEMERIS_TYPE":"0","RCS_SIZE":"LARGE","ELEMENT_SET_NO":"999","TLE_LINE2":"2 49740  53.2170  44.2375 0002185  36.2593  42.1262 15.08838902  3579","NORAD_CAT_ID":"49740","ECCENTRICITY":"0.00021850","PERIOD":"95.438","MEAN_ELEMENT_THEORY":"SGP4","MEAN_MOTION_DOT":"-0.00004051","LAUNCH_DATE":"2021-12-02","MEAN_MOTION_DDOT":"0.0000000000000","MEAN_MOTION":"15.08838902","MEAN_ANOMALY":"42.1262","PERIAPSIS":"538.237","CLASSIFICATION_TYPE":"U","DECAY_DATE":null,"SEMIMAJOR_AXIS":"6917.884","COUNTRY_CODE":"US","CENTER_NAME":"EARTH","OBJECT_ID":"2021-115S","APOAPSIS":"541.260","TIME_SYSTEM":"UTC","EPOCH":"2022-04-19T14:00:01.000224","BSTAR":"-0.00023656000000","ARG_OF_PERICENTER":"36.2593","OBJECT_TYPE":"PAYLOAD","TLE_LINE1":"1 49740U 21115S   22109.58334491 -.00004051  00000-0 -23656-3 0  9992","RA_OF_ASC_NODE":"44.2375","OBJECT_NAME":"STARLINK-3226","REF_FRAME":"TEME"},{"MEAN_ELEMENT_THEORY":"SGP4","PERIOD":"95.436","MEAN_MOTION_DOT":"-0.00013756","LAUNCH_DATE":"2021-12-02","MEAN_MOTION_DDOT":"0.0000000000000","REV_AT_EPOCH":"357","GP_ID":"201629850","INCLINATION":"53.2163","RCS_SIZE":"LARGE","SITE":"AFETR","FILE":"3408368","EPHEMERIS_TYPE":"0","ECCENTRICITY":"0.00020840","TLE_LINE2":"2 49741  53.2163  44.2390 0002084  45.7582  72.6038 15.08860496  3572","ELEMENT_SET_NO":"999","NORAD_CAT_ID":"49741","TIME_SYSTEM":"UTC","APOAPSIS":"541.124","CENTER_NAME":"EARTH","OBJECT_ID":"2021-115T","EPOCH":"2022-04-19T14:00:01.000224","BSTAR":"-0.00084730000000","ARG_OF_PERICENTER":"45.7582","REF_FRAME":"TEME","RA_OF_ASC_NODE":"44.2390","TLE_LINE1":"1 49741U 21115T   22109.58334491 -.00013756  00000-0 -84730-3 0  9995","OBJECT_TYPE":"PAYLOAD","OBJECT_NAME":"STARLINK-3244","MEAN_ANOMALY":"72.6038","MEAN_MOTION":"15.08860496","PERIAPSIS":"538.241","CLASSIFICATION_TYPE":"U","SEMIMAJOR_AXIS":"6917.818","COUNTRY_CODE":"US","DECAY_DATE":null},{"MEAN_MOTION_DOT":"0.00005176","PERIOD":"95.438","MEAN_ELEMENT_THEORY":"SGP4","LAUNCH_DATE":"2021-12-02","MEAN_MOTION_DDOT":"0.0000000000000","INCLINATION":"53.2170","GP_ID":"201629600","REV_AT_EPOCH":"357","NORAD_CAT_ID":"49742","TLE_LINE2":"2 49742  53.2170  44.2400 0002215  38.6315 359.7733 15.08837783  3578","ELEMENT_SET_NO":"999","ECCENTRICITY":"0.00022150","EPHEMERIS_TYPE":"0","FILE":"3408368","SITE":"AFETR","RCS_SIZE":"LARGE","EPOCH":"2022-04-19T14:00:01.000224","BSTAR":"0.00034308000000","CENTER_NAME":"EARTH","OBJECT_ID":"2021-115U","APOAPSIS":"541.284","TIME_SYSTEM":"UTC","RA_OF_ASC_NODE":"44.2400","TLE_LINE1":"1 49742U 21115U   22109.58334491  .00005176  00000-0  34308-3 0  9997","OBJECT_TYPE":"PAYLOAD","OBJECT_NAME":"STARLINK-3202","REF_FRAME":"TEME","ARG_OF_PERICENTER":"38.6315","PERIAPSIS":"538.220","MEAN_MOTION":"15.08837783","MEAN_ANOMALY":"359.7733","DECAY_DATE":null,"SEMIMAJOR_AXIS":"6917.887","COUNTRY_CODE":"US","CLASSIFICATION_TYPE":"U"}];
